{
  "norad_id": 68972,
  "name": "STARLINK-37259",
  "history": [
    {
      "epoch": "2026-05-12T20:00:01.999008Z",
      "apogee_km": 328.6823718209589,
      "perigee_km": 327.2432428023085,
      "latitude_deg": 41.99600575961725,
      "longitude_deg": -156.92311866197437,
      "height_km": 331.2741845815207,
      "semi_major_axis_km": 6706.099807311633,
      "eccentricity": 0.0001073,
      "inclination_deg": 53.1589,
      "raan_deg": 331.5662,
      "arg_perigee_deg": 71.4823,
      "mean_anomaly_deg": 345.0127,
      "mean_motion_rev_day": 15.80875769
    }
  ]
}