STARLINK-37259          
1 68972U 26099X   26132.83335648  .00006219  00000+0  35020-4 0  9993
2 68972  53.1589 331.5662 0001073  71.4823 345.0127 15.80875769  2984
